CELTEE 1                
1 41850U 16067C   18301.78849101  .00000297  00000-0  31197-4 0  9992
2 41850  97.9211  31.7272 0010079  82.2283 278.0082 14.96884483107081
OPTICUBE 04             
1 41851U 16067D   18301.56711114 -.00000408  00000-0 -30415-4 0  9999
2 41851  97.9213  31.3785 0010188  82.1304 278.1073 14.96720567107042
AEROCUBE 8D             
1 41852U 16067E   18302.22005324  .00000079  00000-0  12298-4 0  9994
2 41852  97.9230  31.8716 0011232  80.6792 279.5699 14.96579174107120
AEROCUBE 8C             
1 41853U 16067F   18301.83624286 -.00000228  00000-0 -14728-4 0  9993
2 41853  97.9224  31.4369 0011272  82.7109 277.5392 14.96538691107063
PROMETHEUS 2-1          
1 41854U 16067G   18301.83164730 -.00000156  00000-0 -83004-5 0  9991
2 41854  97.9232  31.4778 0011635  82.3322 277.9220 14.96684957107064
PROMETHEUS 2-3          
1 41855U 16067H   18302.23552508 -.00000121  00000-0 -53103-5 0  9990
2 41855  97.9232  31.8946 0011720  81.5804 278.6745 14.96683929107122
ITF-2                   
1 41932U 98067KU  18302.17932229  .00079495  13452-4  26694-3 0  9991
2 41932  51.6283   4.7413 0006464   8.3008 351.8104 15.90177914101978
AOBA-VELOX 3            
1 41935U 98067KX  18302.13365376  .01205291  11887-4  56581-3 0  9997
2 41935  51.6236 351.4208 0008308  18.0242 342.1069 16.20795161102248
INS-1B                  
1 41954U 17008G   18302.14009433  .00001080  00000-0  48411-4 0  9998
2 41954  97.4316   4.8981 0007965 237.4452 122.6016 15.23351405 94391
BGUSAT                  
1 41999U 17008BD  18302.16242727  .00001758  00000-0  73037-4 0  9998
2 41999  97.4368   6.4046 0006787 255.8376 104.2108 15.25141350 93842
DIDO-2                  
1 42000U 17008BE  18302.13438311  .00000846  00000-0  38455-4 0  9997
2 42000  97.4332   5.3839 0006988 259.7331 100.3118 15.23460505 93798
PEASSS                  
1 42015U 17008BV  18302.17083595  .00000957  00000-0  42084-4 0  9993
2 42015  97.4332   6.0437 0004860 267.6857  92.3824 15.24319524 94323
AL-FARABI 1             
1 42016U 17008BW  18302.18944804  .00001222  00000-0  52138-4 0  9991
2 42016  97.4343   6.3670 0004733 267.4393  92.6303 15.24812256 94460
NAYIF-1 (EO-88)         
1 42017U 17008BX  18302.18149130  .00001244  00000-0  53008-4 0  9992
2 42017  97.4340   6.3670 0004704 267.5043  92.5656 15.24838902 94487
HAVELSAT                
1 42700U 98067LH  18301.68454022  .00045749  00000-0  23067-3 0  9997
2 42700  51.6302  27.8595 0004733  21.2290 338.8907 15.81143131 83064
CXBN-2                  
1 42704U 98067LM  18301.43005874  .00047344  00000-0  24524-3 0  9993
2 42704  51.6326  30.7111 0003937 346.3078  13.7817 15.80544309 82925
PHOENIX                 
1 42706U 98067LP  18302.24061875  .00027346  00000-0  17809-3 0  9996
2 42706  51.6324  30.1632 0002609 343.3658  16.7256 15.75697461 82992
X-CUBESAT               
1 42707U 98067LQ  18302.21107940  .00059370  00000-0  27192-3 0  9996
2 42707  51.6302  23.7792 0004592 354.2874   5.8076 15.83100554 83067
QBEE50-LTU-OC           
1 42708U 98067LR  18302.14363716  .00050385  00000-0  25780-3 0  9992
2 42708  51.6302  26.4438 0003567 357.3971   2.7012 15.80788111 82982
ALTAIR PATHFINDER       
1 42711U 98067LS  18301.93103340  .00015754  00000-0  14161-3 0  9999
2 42711  51.6358  44.6768 0003882 330.3421  29.7355 15.68432693 82432
SHARC                   
1 42712U 98067LT  18302.15048854  .00033147  00000-0  25693-3 0  9991
2 42712  51.6361  43.9579 0003276 334.7526  25.3311 15.71509532 82705
ZA-AEROSAT              
1 42713U 98067LU  18301.69355787  .00029512  00000-0  20518-3 0  9998
2 42713  51.6342  37.0068 0003105 333.0453  27.0384 15.74138425 82514
CSUNSAT 1               
1 42715U 98067LW  18301.76099053  .00031556  00000-0  20667-3 0  9995
2 42715  51.6346  35.2227 0004325 332.4552  27.6218 15.75479337 82541
SPACECUBE               
1 42717U 98067LY  18301.67608832  .00047106  00000-0  24362-3 0  9992
2 42717  51.6269  29.2485 0003779  16.1679 343.9442 15.80582304 81989
HOOPOE                  
1 42718U 98067LZ  18302.20984266  .00099584  00000-0  33899-3 0  9993
2 42718  51.6270  19.2304 0006076   5.6839 354.4234 15.89004883 82162
NJUST-1                 
1 42722U 98067MB  18302.11844813  .00027096  00000-0  20171-3 0  9999
2 42722  51.6371  37.4953 0004972  17.5361  47.4792 15.72575128 81610
UNSW-ECO                
1 42723U 98067MC  18302.18954260  .00143904  19058-4  39863-3 0  9997
2 42723  51.6372  17.7196 0007985   9.6556 350.4604 15.93497803 81869
LILACSAT-1              
1 42725U 98067ME  18302.11746398  .00044842  00000-0  26360-3 0  9995
2 42725  51.6372  31.4364 0004775  10.3238  56.7785 15.77760896 81606
NSIGHT-1                
1 42726U 98067MF  18301.77883797  .00010630  00000-0  11507-3 0  9997
2 42726  51.6392  52.7759 0005139  14.4062 345.7078 15.64182032 81295
SNUSAT-1                
1 42727U 98067MG  18301.74137356  .00041543  00000-0  24651-3 0  9999
2 42727  51.6339  33.4939 0006558 349.1470  10.9388 15.77570863 81506
I-INSPIRE II            
1 42731U 98067ML  18302.16207360  .00191879  25674-4  46157-3 0  9995
2 42731  51.6323  15.8850 0008712 357.8538   2.2431 15.96000164 81668
POLYITAN-2-SAU          
1 42732U 98067MM  18302.24053479  .00057984  00000-0  27082-3 0  9991
2 42732  51.6317  24.7933 0006553 344.7725  15.3079 15.82677668 81552
SNUSAT-1B               
1 42733U 98067MN  18302.13293329  .00042639  00000-0  23552-3 0  9999
2 42733  51.6304  29.3732 0006277 343.8106  16.2694 15.79161935 81489
EXALTA-1                
1 42734U 98067MP  18302.18178179  .00298136  49327-4  51909-3 0  9991
2 42734  51.6207  13.5700 0010187   7.7491 352.3675 16.01574403 81645
BEEAGLESAT              
1 42736U 98067MR  18302.10933867  .00034013  00000-0  21598-3 0  9992
2 42736  51.6324  33.0004 0005735   7.9158 352.1931 15.76139756 81491
UCLSAT                  
1 42765U 17036A   18301.73682675  .00000993  00000-0  46262-4 0  9993
2 42765  97.3855 359.3424 0010868 335.9256  24.1471 15.22171154 75021
LITUANICASAT-2          
1 42768U 17036D   18302.15660601  .00001626  00000-0  74370-4 0  9993
2 42768  97.3876 359.3110 0014332 321.4981  38.5232 15.21888662 74935
AALTO-1                 
1 42775U 17036L   18302.12249552  .00000587  00000-0  29559-4 0  9990
2 42775  97.3845 358.9641 0013010 321.0010  39.0286 15.20964415 74850
URSA MAIOR              
1 42776U 17036M   18302.16706118  .00000686  00000-0  33944-4 0  9994
2 42776  97.3852 359.0889 0012824 320.9877  39.0433 15.21063323 74860
COMPASS 2               
1 42777U 17036N   18301.21700762  .00001316  00000-0  60331-4 0  9990
2 42777  97.3881 358.7839 0011771 327.8750  32.1767 15.22151626 74746
DIAMOND RED             
1 42783U 17036U   18302.16672835  .00000793  00000-0  38045-4 0  9996
2 42783  97.3855 359.5386 0011453 334.0832  25.9829 15.21729905 74882
PEGASUS                 
1 42784U 17036V   18301.72579783  .00000916  00000-0  43144-4 0  9999
2 42784  97.3858 359.2230 0011402 335.7058  24.3639 15.21965338 74821
DIAMOND GREEN           
1 42785U 17036W   18302.09973182  .00000809  00000-0  38743-4 0  9992
2 42785  97.3857 359.4901 0011366 335.0806  24.9880 15.21728549 74860
DIAMOND BLUE            
1 42786U 17036X   18302.09884295  .00000794  00000-0  38052-4 0  9995
2 42786  97.3856 359.4888 0011211 335.4414  24.6286 15.21731689 74868
NUDTSAT                 
1 42787U 17036Y   18301.85084356  .00001941  00000-0  86212-4 0  9995
2 42787  97.3888 359.6918 0012461 333.8784  26.1802 15.22685015 74706
SUCHAI                  
1 42788U 17036Z   18302.11747648  .00001088  00000-0  50229-4 0  9997
2 42788  97.3859 359.7680 0010949 334.0452  26.0234 15.22286799 74968
SKCUBE                  
1 42789U 17036AA  18301.20086636  .00001053  00000-0  48810-4 0  9995
2 42789  97.3858 358.8483 0010891 337.6643  22.4118 15.22224085 74743
VZLUSAT-1               
1 42790U 17036AB  18301.37870803  .00001328  00000-0  59966-4 0  9991
2 42790  97.3866 359.2327 0010466 337.0786  22.9982 15.22687312 74780
ROBUSTA-1B              
1 42792U 17036AD  18301.74795851  .00001019  00000-0  47092-4 0  9997
2 42792  97.3857 359.4767 0010436 336.9037  23.1729 15.22383328 74845
CICERO 6                
1 42793U 17036AE  18301.75990903  .00000814  00000-0  38503-4 0  9993
2 42793  97.3846 359.4288 0009701 339.0815  21.0023 15.22143359 74913
D-SAT                   
1 42794U 17036AF  18301.80314999  .00000172  00000-0  20557-4 0  9992
2 42794  97.5753 351.2987 0126491 196.8477 162.8524 14.90953755 73639
TOKI                    
1 42820U 98067MU  18301.69405203  .00033393  00000-0  22378-3 0  9994
2 42820  51.6333  38.4969 0003642 326.0768  33.9998 15.74922420 74845
MAZAALAI (NUMSAT-1)     
1 42822U 98067MW  18301.50508592  .00031855  00000-0  21863-3 0  9990
2 42822  51.6334  40.2488 0003591 326.0031  34.0738 15.74394170 74783
BRAC ONNESHA            
1 42823U 98067MX  18301.74178156  .00031174  00000-0  21168-3 0  9998
2 42823  51.6349  38.8559 0005440 339.6260  20.4521 15.74645307 74826
NIGERIAEDUSAT-1         
1 42824U 98067MY  18301.53598556  .00031774  00000-0  21957-3 0  9998
2 42824  51.6342  40.5062 0005384 337.7189  22.3575 15.74227652 74778
CORVUS BC2              
1 42846U 17042X   18301.41269373  .00000239  00000-0  28913-4 0  9997
2 42846  97.5838 199.3774 0011032 109.3887 250.8526 14.91875055 70234
CORVUS BC1              
1 42847U 17042Y   18301.78393090  .00000143  00000-0  19368-4 0  9990
2 42847  97.5839 199.8040 0010734 107.7523 252.4868 14.91974390 70288
SILU-1 (SILKROAD 1)     
1 42903U 17021F   18302.10137731  .00042107  00000-0  22455-3 0  9991
2 42903  42.7760 232.9912 0014242 177.4101  15.7318 15.79511246 71046
MIRATA                  
1 43015U 17073C   18301.36591197  .00000628  00000-0  55084-4 0  9997
2 43015  97.7086 226.8363 0256534 197.5782 161.6429 14.78447935 50811
